CSS (TIANHE)            
1 48274U 21035A   24293.35788863  .00075828  00000+0  74232-3 0  9994
2 48274  41.4678  45.5571 0004608 235.0091 125.0317 15.65122043198525
